[{"OBJECT_NAME":"ZY-1 02D","OBJECT_ID":"2019-059A","EPOCH":"2026-03-09T22:47:25.027872","MEAN_MOTION":14.35449537,"ECCENTRICITY":0.00025574,"INCLINATION":98.3302,"RA_OF_ASC_NODE":133.9003,"ARG_OF_PERICENTER":74.5944,"MEAN_ANOMALY":285.5525,"EPHEMERIS_TYPE":0,"CLASSIFICATION_TYPE":"U","NORAD_CAT_ID":44528,"ELEMENT_SET_NO":999,"REV_AT_EPOCH":34010,"BSTAR":2.8589968e-5,"MEAN_MOTION_DOT":4.0e-7,"MEAN_MOTION_DDOT":0},{"OBJECT_NAME":"SL-16 DEB","OBJECT_ID":"1992-093LG","EPOCH":"2026-02-27T08:15:09.139392","MEAN_MOTION":14.19962172,"ECCENTRICITY":0.00795025,"INCLINATION":71.012,"RA_OF_ASC_NODE":59.3165,"ARG_OF_PERICENTER":321.8319,"MEAN_ANOMALY":37.7192,"EPHEMERIS_TYPE":0,"CLASSIFICATION_TYPE":"U","NORAD_CAT_ID":39854,"ELEMENT_SET_NO":999,"REV_AT_EPOCH":60494,"BSTAR":0.00095818458,"MEAN_MOTION_DOT":2.055e-5,"MEAN_MOTION_DDOT":0}]
